NORAD_CAT_ID,OBJECT_NAME,OBJECT_TYPE,EPOCH,MEAN_MOTION,ECCENTRICITY,INCLINATION,RA_OF_ASC_NODE,ARG_OF_PERICENTER,MEAN_ANOMALY,BSTAR,MEAN_MOTION_DOT,MEAN_MOTION_DDOT,TLE_LINE0,TLE_LINE1,TLE_LINE2,SEMIMAJOR_AXIS,PERIOD,APOGEE,PERIGEE,DECAYED
52095.0,STARLINK-3701,PAYLOAD,2023-01-25 16:01:45,15.08841745,0.0001258,53.2156,162.3902,94.1883,265.9252,0.00015661,2.206e-05,0.0,0 STARLINK-3701,1 52095U 22029H   23025.66789271  .00002206  00000-0  15661-3 0  9996,2 52095  53.2156 162.3902 0001258  94.1883 265.9252 15.08841745 48700,6917.875,95.437,540.61,538.87,0.0
52095.0,STARLINK-3701,PAYLOAD,2023-01-26 14:17:09,15.08841644,0.0001305,53.2162,158.2282,98.0576,262.0564,0.00012333,1.676e-05,0.0,0 STARLINK-3701,1 52095U 22029H   23026.59525359  .00001676  00000-0  12333-3 0  9997,2 52095  53.2162 158.2282 0001305  98.0576 262.0564 15.08841644 48844,6917.875,95.437,540.643,538.8380000000001,0.0
52095.0,STARLINK-3701,PAYLOAD,2023-01-26 17:27:55,15.08859583,0.0001158,53.2158,157.6331,85.9916,274.1208,0.00047303,7.252e-05,0.0,0 STARLINK-3701,1 52095U 22029H   23026.72772597  .00007252  00000-0  47303-3 0  9991,2 52095  53.2158 157.6331 0001158  85.9916 274.1208 15.08859583 48868,6917.821,95.436,540.487,538.884,0.0
52095.0,STARLINK-3701,PAYLOAD,2023-01-27 09:21:47,15.08834437,0.0001333,53.2163,154.6598,87.7611,272.3534,-1.356e-05,-5.04e-06,0.0,0 STARLINK-3701,1 52095U 22029H   23027.39013714 -.00000504  00000-0 -13560-4 0  9998,2 52095  53.2163 154.6598 0001333  87.7611 272.3534 15.08834437 48967,6917.897,95.438,540.685,538.84,0.0
52095.0,STARLINK-3701,PAYLOAD,2023-01-27 14:07:57,15.08837886,0.0001357,53.2161,153.7679,88.6608,271.4539,8.8194e-05,1.116e-05,0.0,0 STARLINK-3701,1 52095U 22029H   23027.58885730  .00001116  00000-0  88194-4 0  9997,2 52095  53.2161 153.7679 0001357  88.6608 271.4539 15.08837886 48996,6917.887,95.438,540.691,538.813,0.0
52095.0,STARLINK-3701,PAYLOAD,2023-01-27 15:43:20,15.08841864,0.0001322,53.2158,153.4699,85.4954,274.6189,0.00012982,1.779e-05,0.0,0 STARLINK-3701,1 52095U 22029H   23027.65509471  .00001779  00000-0  12982-3 0  9996,2 52095  53.2158 153.4699 0001322  85.4954 274.6189 15.08841864 49002,6917.875,95.437,540.654,538.825,0.0
52095.0,STARLINK-3701,PAYLOAD,2023-01-28 12:23:21,15.08840053,0.0001469,53.2168,149.6039,92.298,267.818,0.00011068,1.474e-05,0.0,0 STARLINK-3701,1 52095U 22029H   23028.51621749  .00001474  00000-0  11068-3 0  9991,2 52095  53.2168 149.6039 0001469  92.2980 267.8180 15.08840053 49133,6917.88,95.438,540.761,538.729,0.0
52095.0,STARLINK-3701,PAYLOAD,2023-01-28 13:58:44,15.0884537,0.0001506,53.2164,149.3064,111.8492,248.2661,-1.4139e-05,-5.13e-06,0.0,0 STARLINK-3701,1 52095U 22029H   23028.58245445 -.00000513  00000-0 -14139-4 0  9991,2 52095  53.2164 149.3064 0001506 111.8492 248.2661 15.08845370 49147,6917.864,95.437,540.771,538.687,0.0
52095.0,STARLINK-3701,PAYLOAD,2023-01-28 17:09:30,15.08846503,0.0001221,53.215,148.7106,93.7681,266.3451,0.00013132,1.803e-05,0.0,0 STARLINK-3701,1 52095U 22029H   23028.71493338  .00001803  00000-0  13132-3 0  9994,2 52095  53.2150 148.7106 0001221  93.7681 266.3451 15.08846503 49163,6917.861,95.437,540.57,538.881,0.0
52095.0,STARLINK-3701,PAYLOAD,2023-01-29 07:27:59,15.08834313,0.0001353,53.2153,146.0348,81.037,279.0775,4.5819e-06,-2.15e-06,0.0,0 STARLINK-3701,1 52095U 22029H   23029.31110298 -.00000215  00000-0  45819-5 0  9998,2 52095  53.2153 146.0348 0001353  81.0370 279.0775 15.08834313 49252,6917.898,95.438,540.699,538.827,0.0
52095.0,STARLINK-3701,PAYLOAD,2023-01-29 17:00:17,15.08839655,0.0001367,53.2155,144.2501,84.8811,275.2337,8.0398e-05,9.92e-06,0.0,0 STARLINK-3701,1 52095U 22029H   23029.70854156  .00000992  00000-0  80398-4 0  9990,2 52095  53.2155 144.2501 0001367  84.8811 275.2337 15.08839655 49314,6917.881,95.438,540.692,538.801,0.0
52095.0,STARLINK-3701,PAYLOAD,2023-01-30 12:04:55,15.08845347,0.0001278,53.2149,140.6824,87.6893,272.4246,0.00025484,3.771e-05,0.0,0 STARLINK-3701,1 52095U 22029H   23030.50342021  .00003771  00000-0  25484-3 0  9995,2 52095  53.2149 140.6824 0001278  87.6893 272.4246 15.08845347 49433,6917.864,95.437,540.613,538.845,0.0
52095.0,STARLINK-3701,PAYLOAD,2023-01-30 15:15:41,15.08850446,0.0001205,53.2148,140.0866,94.042,266.071,0.00024465,3.609e-05,0.0,0 STARLINK-3701,1 52095U 22029H   23030.63589682  .00003609  00000-0  24465-3 0  9993,2 52095  53.2148 140.0866 0001205  94.0420 266.0710 15.08850446 49453,6917.848,95.437,540.547,538.88,0.0
52095.0,STARLINK-3701,PAYLOAD,2023-01-31 00:48:00,15.08845151,0.0001469,53.2136,138.304,79.7815,280.3343,0.00020368,2.956e-05,0.0,0 STARLINK-3701,1 52095U 22029H   23031.03334047  .00002956  00000-0  20368-3 0  9993,2 52095  53.2136 138.3040 0001469  79.7815 280.3343 15.08845151 49519,6917.865,95.437,540.746,538.713,0.0
52095.0,STARLINK-3701,PAYLOAD,2023-01-31 11:55:42,15.08840958,0.0001561,53.214,136.2219,84.7407,275.3764,0.00015008,2.101e-05,0.0,0 STARLINK-3701,1 52095U 22029H   23031.49702243  .00002101  00000-0  15008-3 0  9997,2 52095  53.2140 136.2219 0001561  84.7407 275.3764 15.08840958 49583,6917.877,95.437,540.822,538.663,0.0
52095.0,STARLINK-3701,PAYLOAD,2023-01-31 16:41:51,15.08844971,0.0001338,53.2145,135.328,102.3183,257.7959,0.00012489,1.701e-05,0.0,0 STARLINK-3701,1 52095U 22029H   23031.69573833  .00001701  00000-0  12489-3 0  9995,2 52095  53.2145 135.3280 0001338 102.3183 257.7959 15.08844971 49619,6917.865,95.437,540.656,538.805,0.0
52095.0,STARLINK-3701,PAYLOAD,2023-02-01 11:46:29,15.08844993,0.000147,53.2149,131.759,112.9808,247.1339,2.7131e-05,1.44e-06,0.0,0 STARLINK-3701,1 52095U 22029H   23032.49061736  .00000144  00000-0  27131-4 0  9999,2 52095  53.2149 131.7590 0001470 112.9808 247.1339 15.08844993 49737,6917.865,95.437,540.747,538.713,0.0
52095.0,STARLINK-3701,PAYLOAD,2023-02-01 13:21:52,15.0884599,0.0001336,53.2155,131.4616,118.6361,241.4765,1.4707e-05,-5.4e-07,0.0,0 STARLINK-3701,1 52095U 22029H   23032.55685632 -.00000054  00000-0  14707-4 0  9999,2 52095  53.2155 131.4616 0001336 118.6361 241.4765 15.08845990 49747,6917.862,95.437,540.651,538.803,0.0
52095.0,STARLINK-3701,PAYLOAD,2023-02-02 13:12:40,15.0883534,0.0001398,53.2177,127.0061,107.1669,252.9477,1.2416e-05,-9e-07,0.0,0 STARLINK-3701,1 52095U 22029H   23033.55046492 -.00000090  00000-0  12416-4 0  9990,2 52095  53.2177 127.0061 0001398 107.1669 252.9477 15.08835340 49899,6917.895,95.438,540.727,538.793,0.0
52095.0,STARLINK-3701,PAYLOAD,2023-02-02 16:23:26,15.08840694,0.0001217,53.2164,126.4094,88.0989,272.0143,1.6774e-05,-2.1e-07,0.0,0 STARLINK-3701,1 52095U 22029H   23033.68294141 -.00000021  00000-0  16774-4 0  9995,2 52095  53.2164 126.4094 0001217  88.0989 272.0143 15.08840694 49910,6917.878,95.438,540.585,538.901,0.0
52095.0,STARLINK-3701,PAYLOAD,2023-02-02 22:44:59,15.08833357,0.0001261,53.2169,125.2177,87.9924,272.1213,-2.8741e-05,-7.45e-06,0.0,0 STARLINK-3701,1 52095U 22029H   23033.94790810 -.00000745  00000-0 -28741-4 0  9999,2 52095  53.2169 125.2177 0001261  87.9924 272.1213 15.08833357 49951,6917.901,95.438,540.638,538.893,0.0
52095.0,STARLINK-3701,PAYLOAD,2023-02-03 09:52:41,15.0883075,0.0001227,53.2163,123.1378,106.6051,253.5076,-2.8038e-05,-7.34e-06,0.0,0 STARLINK-3701,1 52095U 22029H   23034.41159297 -.00000734  00000-0 -28038-4 0  9997,2 52095  53.2163 123.1378 0001227 106.6051 253.5076 15.08830750 50021,6917.909,95.438,540.622,538.925,0.0
52095.0,STARLINK-3701,PAYLOAD,2023-02-04 11:18:50,15.08849511,0.0001296,53.2169,118.3799,102.3729,257.7409,0.00019764,2.86e-05,0.0,0 STARLINK-3701,1 52095U 22029H   23035.47141970  .00002860  00000-0  19764-3 0  9998,2 52095  53.2169 118.3799 0001296 102.3729 257.7409 15.08849511 50189,6917.851,95.437,540.613,538.82,0.0
52095.0,STARLINK-3701,PAYLOAD,2023-02-04 12:54:13,15.08851871,0.0001335,53.2163,118.0827,101.1686,258.9456,0.00029053,4.34e-05,0.0,0 STARLINK-3701,1 52095U 22029H   23035.53766101  .00004340  00000-0  29053-3 0  9991,2 52095  53.2163 118.0827 0001335 101.1686 258.9456 15.08851871 50193,6917.844,95.437,540.633,538.786,0.0
52095.0,STARLINK-3701,PAYLOAD,2023-02-04 14:29:36,15.08854783,0.0001286,53.2156,117.7851,98.1832,261.9306,0.00033669,5.077e-05,0.0,0 STARLINK-3701,1 52095U 22029H   23035.60389966  .00005077  00000-0  33669-3 0  9995,2 52095  53.2156 117.7851 0001286  98.1832 261.9306 15.08854783 50206,6917.835,95.437,540.59,538.811,0.0
52095.0,STARLINK-3701,PAYLOAD,2023-02-04 22:26:33,15.08841555,0.0001512,53.2169,116.2974,81.9155,278.2008,0.00013714,1.895e-05,0.0,0 STARLINK-3701,1 52095U 22029H   23035.93510645  .00001895  00000-0  13714-3 0  9994,2 52095  53.2169 116.2974 0001512  81.9155 278.2008 15.08841555 50258,6917.876,95.437,540.787,538.695,0.0
52095.0,STARLINK-3701,PAYLOAD,2023-02-05 12:45:01,15.08843073,0.0001396,53.2167,113.6235,87.5779,272.5373,0.00013983,1.938e-05,0.0,0 STARLINK-3701,1 52095U 22029H   23036.53126749  .00001938  00000-0  13983-3 0  9995,2 52095  53.2167 113.6235 0001396  87.5779 272.5373 15.08843073 50340,6917.871,95.437,540.702,538.77,0.0
52095.0,STARLINK-3701,PAYLOAD,2023-02-05 22:17:20,15.08845436,0.0001431,53.2172,111.8401,85.7151,274.4005,0.00012859,1.759e-05,0.0,0 STARLINK-3701,1 52095U 22029H   23036.92870673  .00001759  00000-0  12859-3 0  9992,2 52095  53.2172 111.8401 0001431  85.7151 274.4005 15.08845436 50400,6917.864,95.437,540.719,538.739,0.0
52095.0,STARLINK-3701,PAYLOAD,2023-02-06 11:00:25,15.08849669,0.0001561,53.2161,109.4614,81.3359,278.781,0.0005016,7.706e-05,0.0,0 STARLINK-3701,1 52095U 22029H   23037.45862632  .00007706  00000-0  50160-3 0  9992,2 52095  53.2161 109.4614 0001561  81.3359 278.7810 15.08849669 50484,6917.851,95.437,540.796,538.636,0.0
52095.0,STARLINK-3701,PAYLOAD,2023-02-06 14:11:11,15.08859925,0.0001379,53.2147,108.8645,93.0669,267.0481,0.00082414,0.0001286,0.0,0 STARLINK-3701,1 52095U 22029H   23037.59110236  .00012860  00000-0  82414-3 0  9997,2 52095  53.2147 108.8645 0001379  93.0669 267.0481 15.08859925 50500,6917.819,95.436,540.638,538.731,0.0
